[{"OBJECT_NAME":"UHETSAT","OBJECT_ID":"2023-185E","EPOCH":"2026-03-09T22:39:26.455680","MEAN_MOTION":15.29797662,"ECCENTRICITY":0.00118435,"INCLINATION":97.3584,"RA_OF_ASC_NODE":137.3576,"ARG_OF_PERICENTER":307.7346,"MEAN_ANOMALY":52.2821,"EPHEMERIS_TYPE":0,"CLASSIFICATION_TYPE":"U","NORAD_CAT_ID":58466,"ELEMENT_SET_NO":999,"REV_AT_EPOCH":12611,"BSTAR":0.00030513019,"MEAN_MOTION_DOT":8.749e-5,"MEAN_MOTION_DDOT":0},{"OBJECT_NAME":"STARLINK-35101","OBJECT_ID":"2025-212AA","EPOCH":"2026-03-09T22:07:10.390656","MEAN_MOTION":15.30207682,"ECCENTRICITY":0.00010877,"INCLINATION":53.1585,"RA_OF_ASC_NODE":344.2668,"ARG_OF_PERICENTER":94.0579,"MEAN_ANOMALY":266.0546,"EPHEMERIS_TYPE":0,"CLASSIFICATION_TYPE":"U","NORAD_CAT_ID":65700,"ELEMENT_SET_NO":999,"REV_AT_EPOCH":2723,"BSTAR":0.00087534217,"MEAN_MOTION_DOT":0.00025662,"MEAN_MOTION_DDOT":0}]
